BEIDOU-2 IGSO-1 (C06)   
1 36828U 10036A   25171.90439376 -.00000039  00000+0  00000+0 0  9995
2 36828  54.2770 166.2281 0049696 218.1358 318.2709  1.00275657 54475
BEIDOU-2 G4 (C04)       
1 37210U 10057A   25172.61537574 -.00000105  00000+0  00000+0 0  9996
2 37210   2.7508  70.4584 0004738 178.8586  42.2901  1.00270687 53670
BEIDOU-2 IGSO-2 (C07)   
1 37256U 10068A   25171.72292108 -.00000226  00000+0  00000+0 0  9994
2 37256  48.2005 276.3089 0047153 212.9472 147.0194  1.00288382 53170
BEIDOU-2 IGSO-3 (C08)   
1 37384U 11013A   25172.45488913 -.00000200  00000+0  00000+0 0  9991
2 37384  61.8907  43.5668 0030644 176.2803 321.5235  1.00264817 52045
BEIDOU-2 IGSO-4 (C09)   
1 37763U 11038A   25172.44981216  .00000063  00000+0  00000+0 0  9998
2 37763  54.5795 168.9025 0144338 231.2463 126.7621  1.00276538 51023
BEIDOU-2 IGSO-5 (C10)   
1 37948U 11073A   25172.62849661 -.00000192  00000+0  00000+0 0  9993
2 37948  48.3352 276.0012 0108428 219.8891  95.4417  1.00286835 49519
BEIDOU-2 G5 (C05)       
1 38091U 12008A   25172.51370086  .00000065  00000+0  00000+0 0  9998
2 38091   2.6737  71.2595 0007708 266.7996 175.4960  1.00270581 48754
BEIDOU-2 M3 (C11)       
1 38250U 12018A   25172.35430073 -.00000083  00000+0  00000+0 0  9992
2 38250  56.0635 317.0121 0020992 267.3843  92.3623  1.86233501 89220
BEIDOU-2 M4 (C12)       
1 38251U 12018B   25171.21255891 -.00000076  00000+0  00000+0 0  9992
2 38251  55.9679 316.2935 0011897 268.1132  91.7412  1.86231900 89203
BEIDOU-2 M6 (C14)       
1 38775U 12050B   25171.99683675 -.00000058  00000+0  00000+0 0  9999
2 38775  56.2232  74.8670 0013723 349.8880  10.1030  1.86230954 86580
BEIDOU-2 G6 (C02)       
1 38953U 12059A   25172.37598306 -.00000168  00000+0  00000+0 0  9997
2 38953   3.5033  77.2979 0009119 319.5167  92.4168  1.00270766 46297
BEIDOU-3S IGSO-1S (C31) 
1 40549U 15019A   25171.81999970 -.00000203  00000+0  00000+0 0  9990
2 40549  49.8811 299.8103 0040221 192.3655 167.3566  1.00276761 37449
BEIDOU-3S M2S (C58)     
1 40748U 15037A   25170.87889927 -.00000074  00000+0  00000+0 0  9992
2 40748  55.1897 314.4938 0008875 251.9682 107.9270  1.86229099 67378
BEIDOU-3S M1S (C57)     
1 40749U 15037B   25172.20611233 -.00000083  00000+0  00000+0 0  9995
2 40749  55.1851 314.4401 0003088  25.6784 334.3245  1.86253741 67407
BEIDOU-3S IGSO-2S (C56) 
1 40938U 15053A   25172.63087468 -.00000147  00000+0  00000+0 0  9998
2 40938  49.7788 263.0665 0060104 188.7929 141.0135  1.00265739 35738
BEIDOU-2 IGSO-6 (C13)   
1 41434U 16021A   25172.44511615 -.00000172  00000+0  00000+0 0  9999
2 41434  59.7162  41.6369 0053703 228.7844 254.5741  1.00286030 33868
BEIDOU-2 G7 (C03)       
1 41586U 16037A   25172.62336706 -.00000345  00000+0  00000+0 0  9992
2 41586   1.7748  68.9916 0009931  13.0604 162.8888  1.00264598  3276
BEIDOU-3 M1 (C19)       
1 43001U 17069A   25172.29943802 -.00000060  00000+0  00000+0 0  9990
2 43001  56.3722  75.0013 0010321 319.1592  40.7818  1.86231134 51887
BEIDOU-3 M2 (C20)       
1 43002U 17069B   25172.23743765 -.00000059  00000+0  00000+0 0  9999
2 43002  56.3714  75.0393 0008887 344.5906  15.4005  1.86230758 51872
BEIDOU-3 M7 (C27)       
1 43107U 18003A   25171.98281671 -.00000083  00000+0  00000+0 0  9995
2 43107  54.6471 314.8846 0004525  87.5856 272.4549  1.86232431 50629
BEIDOU-3 M8 (C28)       
1 43108U 18003B   25171.92628182 -.00000082  00000+0  00000+0 0  9991
2 43108  54.6400 314.8703 0002848 254.2465 105.7109  1.86230850 50633
BEIDOU-3 M4 (C22)       
1 43207U 18018A   25171.29372717 -.00000052  00000+0  00000+0 0  9994
2 43207  56.3301  75.1112 0007329  11.7115 348.3250  1.86231050 50006
BEIDOU-3 M3 (C21)       
1 43208U 18018B   25170.28636932 -.00000042  00000+0  00000+0 0  9994
2 43208  56.3286  75.1488 0008526 333.5877  26.3912  1.86230972 49980
BEIDOU-3 M9 (C29)       
1 43245U 18029A   25172.11483154 -.00000083  00000+0  00000+0 0  9992
2 43245  54.5195 312.5513 0000839 173.3678 186.6216  1.86232443 49178
BEIDOU-3 M10 (C30)      
1 43246U 18029B   25172.04759528 -.00000082  00000+0  00000+0 0  9995
2 43246  54.5171 312.5809 0003497  29.6413 330.3669  1.86229028 49157
BEIDOU-2 IGSO-7 (C16)   
1 43539U 18057A   25171.57994595 -.00000041  00000+0  00000+0 0  9998
2 43539  55.1674 166.1885 0089846 236.6019 186.5141  1.00255397 25499
BEIDOU-3 M5 (C23)       
1 43581U 18062A   25172.27277800  .00000120  00000+0  00000+0 0  9999
2 43581  54.1004 194.5744 0005590 280.6495  79.3507  1.86228483 46917
BEIDOU-3 M6 (C24)       
1 43582U 18062B   25172.13682703  .00000120  00000+0  00000+0 0  9997
2 43582  54.1000 194.5682 0004442   2.0363 358.0285  1.86229352 46916
BEIDOU-3 M12 (C26)      
1 43602U 18067A   25170.46181464  .00000115  00000+0  00000+0 0  9991
2 43602  54.1933 193.3401 0007164  24.0146 336.0765  1.86227734 46367
BEIDOU-3 M11 (C25)      
1 43603U 18067B   25171.66979303  .00000121  00000+0  00000+0 0  9999
2 43603  54.1906 193.2635 0004059   6.0667 353.9986  1.86227217 46419
BEIDOU-3 M13 (C32)      
1 43622U 18072A   25172.16524564 -.00000059  00000+0  00000+0 0  9998
2 43622  56.3036  74.6027 0006991 322.0196  37.9500  1.86231295 45938
BEIDOU-3 M14 (C33)      
1 43623U 18072B   25171.49377051 -.00000054  00000+0  00000+0 0  9996
2 43623  56.3049  74.6187 0005790 353.1104   6.9015  1.86231354 45911
BEIDOU-3 M16 (C35)      
1 43647U 18078A   25170.57964819 -.00000073  00000+0  00000+0 0  9991
2 43647  54.4173 312.6725 0006910  32.3763 327.6591  1.86232158 45419
BEIDOU-3 M15 (C34)      
1 43648U 18078B   25171.78277472 -.00000081  00000+0  00000+0 0  9997
2 43648  54.4120 312.6322 0003947  49.3338 310.6898  1.86232227 45440
BEIDOU-3 G1 (C59)       
1 43683U 18085A   25172.50316328 -.00000268  00000+0  00000+0 0  9996
2 43683   2.6787 108.2997 0004157 350.9986 131.8351  1.00271910 24446
BEIDOU-3 M17 (C36)      
1 43706U 18093A   25172.47533975  .00000120  00000+0  00000+0 0  9992
2 43706  54.1837 194.5330 0010237 284.9234  75.0266  1.86228163 44821
BEIDOU-3 M18 (C37)      
1 43707U 18093B   25172.33771368  .00000121  00000+0  00000+0 0  9999
2 43707  54.1845 194.5295 0008054 310.9672  49.0263  1.86229676 44818
BEIDOU-3 IGSO-1 (C38)   
1 44204U 19023A   25172.62919898 -.00000232  00000+0  00000+0 0  9994
2 44204  58.1823  41.3727 0023173 217.3836 354.5353  1.00295477  3593
BEIDOU-2 G8 (C01)       
1 44231U 19027A   25172.50569985 -.00000239  00000+0  00000+0 0  9990
2 44231   1.7016  75.1557 0004081 255.0137 266.3270  1.00272249 22464
BEIDOU-3 IGSO-2 (C39)   
1 44337U 19035A   25172.57611966 -.00000054  00000+0  00000+0 0  9995
2 44337  55.2125 162.0294 0035876 210.9383 224.3663  1.00269249 22050
BEIDOU-3 M24 (C46)      
1 44542U 19061A   25172.40872809  .00000121  00000+0  00000+0 0  9993
2 44542  54.4113 194.8949 0007976 349.8093  10.2385  1.86229108 39073
BEIDOU-3 M23 (C45)      
1 44543U 19061B   25171.57541925  .00000120  00000+0  00000+0 0  9992
2 44543  54.4100 194.8915 0005474 328.1666 105.9377  1.86229116 39050
BEIDOU-3 IGSO-3 (C40)   
1 44709U 19073A   25169.73004392 -.00000210  00000+0  00000+0 0  9997
2 44709  55.4234 284.8217 0045419 183.7741 176.1895  1.00244594 20812
BEIDOU-3 M22 (C44)      
1 44793U 19078A   25171.17694689 -.00000077  00000+0  00000+0 0  9991
2 44793  54.2642 312.5386 0005896  41.5761 318.4600  1.86232084 37907
BEIDOU-3 M21 (C43)      
1 44794U 19078B   25171.84747710 -.00000082  00000+0  00000+0 0  9996
2 44794  54.2367 312.4836 0003857  40.2526 319.7652  1.86227656 37923
BEIDOU-3 M19 (C41)      
1 44864U 19090A   25172.36807470 -.00000060  00000+0  00000+0 0  9992
2 44864  56.2378  74.7470 0017616 292.2731 250.8133  1.86231435 37516
BEIDOU-3 M20 (C42)      
1 44865U 19090B   25171.87233939 -.00000057  00000+0  00000+0 0  9997
2 44865  56.2391  74.7974 0015559 306.2697 354.0986  1.86231318 37481
BEIDOU-3 G2 (C60)       
1 45344U 20017A   25172.44651072 -.00000134  00000+0  00000+0 0  9993
2 45344   2.8794  40.5554 0001711  41.2209  68.8672  1.00271970 19647
BEIDOU-3 G3 (C61)       
1 45807U 20040A   25172.62660281 -.00000345  00000+0  00000+0 0  9999
2 45807   1.5716  64.1883 0004614 352.6094 189.3796  1.00267741 18459
BEIDOU-3 G4 (C62)       
1 56564U 23066A   25172.61537596 -.00000101  00000+0  00000+0 0  9993
2 56564   1.2137 292.7488 0006427 187.3872 171.4984  1.00270619  7778
BEIDOU-3 M28 (C50)      
1 58654U 23207A   25171.92716224 -.00000058  00000+0  00000+0 0  9993
2 58654  55.4263  74.5217 0003006 335.2544  24.7497  1.86229820 10110
BEIDOU-3 M26 (C48)      
1 58655U 23207B   25172.26328484 -.00000061  00000+0  00000+0 0  9993
2 58655  55.4287  74.4962 0002968 304.7649  55.2254  1.86231568 10107
BEIDOU-3 M25 (C47)      
1 61186U 24168B   25172.56874187 -.00000086  00000+0  00000+0 0  9999
2 61186  54.7918 314.7490 0003350 289.4428  33.0334  1.86229813  5061
BEIDOU-3 M27 (C49)      
1 61187U 24168C   25172.43951567 -.00000085  00000+0  00000+0 0  9993
2 61187  54.7876 314.7377 0001275  36.7981 333.9281  1.86229874  2540
